{
  "type": "FeatureCollection",
  "features": [
    {
      "type": "Feature",
      "properties": {
        "norad_id": 34540,
        "name": "IRIDIUM 33 DEB",
        "group": "iridium-33-debris",
        "lat": -34.25154131585114,
        "lon": 130.48761093667437,
        "alt_km": 643.55159954808,
        "timestamp": "2025-12-11T22:43:47.654790+00:00",
        "meta_object_name": "IRIDIUM 33 DEB",
        "meta_object_id": "1997-051JH",
        "meta_epoch": "2025-12-11T15:48:51.253056",
        "meta_mean_motion": 14.75284655,
        "meta_eccentricity": 0.00162285,
        "meta_inclination": 86.3108,
        "meta_ra_of_asc_node": 308.1013,
        "meta_arg_of_pericenter": 162.9977,
        "meta_mean_anomaly": 321.6929,
        "meta_ephemeris_type": 0,
        "meta_classification_type": "U",
        "meta_norad_cat_id": 34540,
        "meta_element_set_no": 999,
        "meta_rev_at_epoch": 89005,
        "meta_bstar": 0.002611865,
        "meta_mean_motion_dot": 0.00017769,
        "meta_mean_motion_ddot": 0,
        "tle_line1": "1 34540U 97051JH  25345.65892654  .00017769  00000+0  26119-2 0  9992",
        "tle_line2": "2 34540  86.3108 308.1013 0016228 162.9977 321.6929 14.75284655890051"
      },
      "geometry": {
        "type": "Point",
        "coordinates": [
          130.48761093667437,
          -34.25154131585114
        ]
      }
    },
    {
      "type": "Feature",
      "properties": {
        "norad_id": 34648,
        "name": "IRIDIUM 33 DEB",
        "group": "iridium-33-debris",
        "lat": -1.0237187439074618,
        "lon": 102.33109777615358,
        "alt_km": 922.8302527256265,
        "timestamp": "2025-12-11T22:43:47.654801+00:00",
        "meta_object_name": "IRIDIUM 33 DEB",
        "meta_object_id": "1997-051JZ",
        "meta_epoch": "2025-12-11T13:21:05.102784",
        "meta_mean_motion": 14.11443671,
        "meta_eccentricity": 0.01830215,
        "meta_inclination": 86.3904,
        "meta_ra_of_asc_node": 282.4242,
        "meta_arg_of_pericenter": 302.6046,
        "meta_mean_anomaly": 55.7583,
        "meta_ephemeris_type": 0,
        "meta_classification_type": "U",
        "meta_norad_cat_id": 34648,
        "meta_element_set_no": 999,
        "meta_rev_at_epoch": 84944,
        "meta_bstar": 0.011270699,
        "meta_mean_motion_dot": 0.00023967,
        "meta_mean_motion_ddot": 0,
        "tle_line1": "1 34648U 97051JZ  25345.55630906  .00023967  00000+0  11271-1 0  9999",
        "tle_line2": "2 34648  86.3904 282.4242 0183021 302.6046  55.7583 14.11443671849441"
      },
      "geometry": {
        "type": "Point",
        "coordinates": [
          102.33109777615358,
          -1.0237187439074618
        ]
      }
    },
    {
      "type": "Feature",
      "properties": {
        "norad_id": 34651,
        "name": "IRIDIUM 33 DEB",
        "group": "iridium-33-debris",
        "lat": -19.495967342483983,
        "lon": -37.76690963633477,
        "alt_km": 709.6567199313731,
        "timestamp": "2025-12-11T22:43:47.654815+00:00",
        "meta_object_name": "IRIDIUM 33 DEB",
        "meta_object_id": "1997-051KC",
        "meta_epoch": "2025-12-11T10:00:09.377280",
        "meta_mean_motion": 14.25785902,
        "meta_eccentricity": 0.01420766,
        "meta_inclination": 86.2836,
        "meta_ra_of_asc_node": 141.1401,
        "meta_arg_of_pericenter": 208.1446,
        "meta_mean_anomaly": 151.2016,
        "meta_ephemeris_type": 0,
        "meta_classification_type": "U",
        "meta_norad_cat_id": 34651,
        "meta_element_set_no": 999,
        "meta_rev_at_epoch": 85877,
        "meta_bstar": 0.0064804536,
        "meta_mean_motion_dot": 0.00017162,
        "meta_mean_motion_ddot": 0,
        "tle_line1": "1 34651U 97051KC  25345.41677520  .00017162  00000+0  64805-2 0  9993",
        "tle_line2": "2 34651  86.2836 141.1401 0142076 208.1446 151.2016 14.25785902858775"
      },
      "geometry": {
        "type": "Point",
        "coordinates": [
          -37.76690963633477,
          -19.495967342483983
        ]
      }
    },
    {
      "type": "Feature",
      "properties": {
        "norad_id": 34652,
        "name": "IRIDIUM 33 DEB",
        "group": "iridium-33-debris",
        "lat": 32.51428795996511,
        "lon": 158.0109223536102,
        "alt_km": 701.2440535428823,
        "timestamp": "2025-12-11T22:43:47.654836+00:00",
        "meta_object_name": "IRIDIUM 33 DEB",
        "meta_object_id": "1997-051KD",
        "meta_epoch": "2025-12-11T07:34:05.057184",
        "meta_mean_motion": 14.62038303,
        "meta_eccentricity": 0.00260123,
        "meta_inclination": 86.3317,
        "meta_ra_of_asc_node": 340.6357,
        "meta_arg_of_pericenter": 303.4759,
        "meta_mean_anomaly": 121.0337,
        "meta_ephemeris_type": 0,
        "meta_classification_type": "U",
        "meta_norad_cat_id": 34652,
        "meta_element_set_no": 999,
        "meta_rev_at_epoch": 88463,
        "meta_bstar": 0.0018117648,
        "meta_mean_motion_dot": 9.158e-05,
        "meta_mean_motion_ddot": 0,
        "tle_line1": "1 34652U 97051KD  25345.31533631  .00009158  00000+0  18118-2 0  9999",
        "tle_line2": "2 34652  86.3317 340.6357 0026012 303.4759 121.0337 14.62038303884636"
      },
      "geometry": {
        "type": "Point",
        "coordinates": [
          158.0109223536102,
          32.51428795996511
        ]
      }
    },
    {
      "type": "Feature",
      "properties": {
        "norad_id": 34690,
        "name": "IRIDIUM 33 DEB",
        "group": "iridium-33-debris",
        "lat": 29.961496473024447,
        "lon": 39.428351026444936,
        "alt_km": 699.8176016974139,
        "timestamp": "2025-12-11T22:43:47.654861+00:00",
        "meta_object_name": "IRIDIUM 33 DEB",
        "meta_object_id": "1997-051KM",
        "meta_epoch": "2025-12-11T02:55:05.414016",
        "meta_mean_motion": 14.5508579,
        "meta_eccentricity": 0.00110418,
        "meta_inclination": 86.378,
        "meta_ra_of_asc_node": 37.6945,
        "meta_arg_of_pericenter": 34.4543,
        "meta_mean_anomaly": 354.2887,
        "meta_ephemeris_type": 0,
        "meta_classification_type": "U",
        "meta_norad_cat_id": 34690,
        "meta_element_set_no": 999,
        "meta_rev_at_epoch": 88071,
        "meta_bstar": 0.00065168739,
        "meta_mean_motion_dot": 2.833e-05,
        "meta_mean_motion_ddot": 0,
        "tle_line1": "1 34690U 97051KM  25345.12159044  .00002833  00000+0  65169-3 0  9994",
        "tle_line2": "2 34690  86.3780  37.6945 0011041  34.4543 354.2887 14.55085790880715"
      },
      "geometry": {
        "type": "Point",
        "coordinates": [
          39.428351026444936,
          29.961496473024447
        ]
      }
    },
    {
      "type": "Feature",
      "properties": {
        "norad_id": 34693,
        "name": "IRIDIUM 33 DEB",
        "group": "iridium-33-debris",
        "lat": -51.11966277969402,
        "lon": 128.81683071656462,
        "alt_km": 499.51625114289436,
        "timestamp": "2025-12-11T22:43:47.654880+00:00",
        "meta_object_name": "IRIDIUM 33 DEB",
        "meta_object_id": "1997-051KQ",
        "meta_epoch": "2025-12-11T09:42:36.581184",
        "meta_mean_motion": 15.27439249,
        "meta_eccentricity": 0.0014165,
        "meta_inclination": 86.3047,
        "meta_ra_of_asc_node": 304.4888,
        "meta_arg_of_pericenter": 55.718,
        "meta_mean_anomaly": 74.2343,
        "meta_ephemeris_type": 0,
        "meta_classification_type": "U",
        "meta_norad_cat_id": 34693,
        "meta_element_set_no": 999,
        "meta_rev_at_epoch": 88894,
        "meta_bstar": 0.0085161801,
        "meta_mean_motion_dot": 0.00236096,
        "meta_mean_motion_ddot": 0,
        "tle_line1": "1 34693U 97051KQ  25345.40459006  .00236096  00000+0  85162-2 0  9993",
        "tle_line2": "2 34693  86.3047 304.4888 0014165  55.7180  74.2343 15.27439249888949"
      },
      "geometry": {
        "type": "Point",
        "coordinates": [
          128.81683071656462,
          -51.11966277969402
        ]
      }
    },
    {
      "type": "Feature",
      "properties": {
        "norad_id": 34696,
        "name": "IRIDIUM 33 DEB",
        "group": "iridium-33-debris",
        "lat": 40.15666441347168,
        "lon": -155.3366238727591,
        "alt_km": 628.8223503528325,
        "timestamp": "2025-12-11T22:43:47.654896+00:00",
        "meta_object_name": "IRIDIUM 33 DEB",
        "meta_object_id": "1997-051KT",
        "meta_epoch": "2025-12-11T02:33:26.982720",
        "meta_mean_motion": 14.64953116,
        "meta_eccentricity": 0.00741481,
        "meta_inclination": 86.185,
        "meta_ra_of_asc_node": 28.2818,
        "meta_arg_of_pericenter": 173.0229,
        "meta_mean_anomaly": 217.0787,
        "meta_ephemeris_type": 0,
        "meta_classification_type": "U",
        "meta_norad_cat_id": 34696,
        "meta_element_set_no": 999,
        "meta_rev_at_epoch": 86649,
        "meta_bstar": 0.0075396538,
        "meta_mean_motion_dot": 0.00042238,
        "meta_mean_motion_ddot": 0,
        "tle_line1": "1 34696U 97051KT  25345.10656230  .00042238  00000+0  75397-2 0  9993",
        "tle_line2": "2 34696  86.1850  28.2818 0074148 173.0229 217.0787 14.64953116866490"
      },
      "geometry": {
        "type": "Point",
        "coordinates": [
          -155.3366238727591,
          40.15666441347168
        ]
      }
    }
  ]
}